XRISM                   
1 57800U 23137A   26078.80993593  .00004804  00000+0  27027-3 0  9991
2 57800  31.0011 218.1974 0007928 140.8254 219.2959 15.11607413139324
ACS3                    
1 59588U 24077B   26078.79281247  .00024936  00000+0  19790-1 0  9998
2 59588  97.2017  17.6345 0068349  52.9305 307.8082 13.90064551 95605
SZ-21 MODULE            
1 66515U 25246C   26078.55771997  .00027418  00000+0  23011-3 0  9996
2 66515  41.4733 142.5807 0000385 277.1861  82.8937 15.69284939 19623
